STARLINK-1535
1 16050C 20055Z   21326.14981865  .00335236  00000-0  39951-2 0  3268
2 16050  53.0546 300.1508 0001365  61.0798 240.9062 15.60111857    12
